H1 CPF 01  gfz 2021 07 07 00  6881 terrasarx 
H2 0702601  6201 31698    2021 07 07 00 59 42 2021 07 12 00 00 42   120 1 1  0 0 0
H9
10 0 59402   3582.000000  0     434845.737   4407849.529   5266062.401
10 0 59402   3702.000000  0     724536.640   5025150.213   4646433.670
10 0 59402   3822.000000  0    1011558.938   5549595.195   3945034.987
10 0 59402   3942.000000  0    1289186.404   5972094.693   3174187.327
10 0 59402   4062.000000  0    1550714.313   6285464.953   2347450.822
10 0 59402   4182.000000  0    1789614.107   6484559.937   1479380.118
10 0 59402   4302.000000  0    1999686.225   6566361.956    585262.978
10 0 59402   4422.000000  0    2175208.769   6530029.085   -319156.868
10 0 59402   4542.000000  0    2311076.691   6376899.289  -1217964.726
10 0 59402   4662.000000  0    2402929.086   6110451.457  -2095362.783
10 0 59402   4782.000000  0    2447261.421   5736224.193  -2935954.784
10 0 59402   4902.000000  0    2441519.623   5261694.119  -3725021.830
10 0 59402   5022.000000  0    2384173.537   4696116.122  -4448782.463
10 0 59402   5142.000000  0    2274767.829   4050331.806  -5094630.877
10 0 59402   5262.000000  0    2113950.417   3336551.977  -5651349.940
10 0 59402   5382.000000  0    1903478.388   2568118.615  -6109297.332
10 0 59402   5502.000000  0    1646200.893   1759250.373  -6460561.738
10 0 59402   5622.000000  0    1346020.873    924778.713  -6699087.393
10 0 59402   5742.000000  0    1007836.180     79878.534  -6820768.935
10 0 59402   5862.000000  0     637459.420   -760203.391  -6823514.622
10 0 59402   5982.000000  0     241519.260  -1580417.582  -6707276.857
10 0 59402   6102.000000  0    -172654.764  -2366173.358  -6474052.171
10 0 59402   6222.000000  0    -597163.984  -3103592.416  -6127852.726
10 0 59402   6342.000000  0   -1023687.216  -3779751.647  -5674644.345
10 0 59402   6462.000000  0   -1443638.835  -4382908.726  -5122253.846
10 0 59402   6582.000000  0   -1848337.426  -4902709.929  -4480246.096
10 0 59402   6702.000000  0   -2229182.196  -5330375.247  -3759769.232
10 0 59402   6822.000000  0   -2577833.227  -5658855.808  -2973369.937
10 0 59402   6942.000000  0   -2886391.512  -5882960.419  -2134781.533
10 0 59402   7062.000000  0   -3147575.220  -5999448.575  -1258687.358
10 0 59402   7182.000000  0   -3354887.831  -6007086.339   -360462.133
10 0 59402   7302.000000  0   -3502772.672  -5906661.640    544103.447
10 0 59402   7422.000000  0   -3586749.922  -5700958.811   1439087.931
10 0 59402   7542.000000  0   -3603532.732  -5394692.515   2308728.703
10 0 59402   7662.000000  0   -3551118.754  -4994401.968   3137708.511
10 0 59402   7782.000000  0   -3428855.150  -4508309.661   3911432.409
10 0 59402   7902.000000  0   -3237475.600  -3946147.810   4616290.045
10 0 59402   8022.000000  0   -2979108.556  -3318956.423   5239897.240
10 0 59402   8142.000000  0   -2657256.898  -2638859.334   5771312.344
10 0 59402   8262.000000  0   -2276749.365  -1918824.167   6201224.333
10 0 59402   8382.000000  0   -1843665.891  -1172411.343   6522111.744
10 0 59402   8502.000000  0   -1365236.683   -413514.489   6728369.520
10 0 59402   8622.000000  0    -849718.936    343899.897   6816398.402
10 0 59402   8742.000000  0    -306254.729   1086047.780   6784663.662
10 0 59402   8862.000000  0     255290.953   1799578.061   6633720.855
10 0 59402   8982.000000  0     824509.097   2471812.751   6366206.653
10 0 59402   9102.000000  0    1390638.959   3090971.948   5986795.001
10 0 59402   9222.000000  0    1942770.439   3646381.693   5502120.873
10 0 59402   9342.000000  0    2470054.146   4128662.115   4920670.735
10 0 59402   9462.000000  0    2961916.478   4529891.491   4252639.396
10 0 59402   9582.000000  0    3408272.814   4843741.305   3509755.116
10 0 59402   9702.000000  0    3799736.377   5065582.956   2705078.697
10 0 59402   9822.000000  0    4127820.761   5192562.708   1852771.538
10 0 59402   9942.000000  0    4385122.789   5223636.428    967841.497
10 0 59402  10062.000000  0    4565488.510   5159572.722     65873.688
10 0 59402  10182.000000  0    4664154.124   5002916.263   -837254.586
10 0 59402  10302.000000  0    4677859.129   4757913.632  -1725661.076
10 0 59402  10422.000000  0    4604929.785   4430406.924  -2583745.198
10 0 59402  10542.000000  0    4445330.230   4027696.455  -3396468.078
10 0 59402  10662.000000  0    4200679.497   3558376.005  -4149619.747
10 0 59402  10782.000000  0    3874235.071   3032145.346  -4830066.442
10 0 59402  10902.000000  0    3470845.436   2459605.587  -5425975.282
10 0 59402  11022.000000  0    2996871.803   1852042.296  -5927012.888
10 0 59402  11142.000000  0    2460081.399   1221200.871  -6324514.334
10 0 59402  11262.000000  0    1869515.301    579059.780  -6611620.958
10 0 59402  11382.000000  0    1235335.100    -62393.650  -6783387.003
10 0 59402  11502.000000  0     568649.235   -691382.683  -6836857.633
10 0 59402  11622.000000  0    -118679.722  -1296552.953  -6771113.034
10 0 59402  11742.000000  0    -814240.515  -1867171.323  -6587281.448
10 0 59402  11862.000000  0   -1505291.662  -2393311.567  -6288523.217
10 0 59402  11982.000000  0   -2178989.714  -2866024.929  -5879982.146
10 0 59402  12102.000000  0   -2822622.747  -3277491.340  -5368706.117
10 0 59402  12222.000000  0   -3423848.138  -3621151.265  -4763538.030
10 0 59402  12342.000000  0   -3970930.592  -3891814.921  -4074973.840
10 0 59402  12462.000000  0   -4452973.876  -4085745.425  -3314990.375
10 0 59402  12582.000000  0   -4860142.869  -4200714.935  -2496844.894
10 0 59402  12702.000000  0   -5183870.229  -4236031.471  -1634847.723
10 0 59402  12822.000000  0   -5417042.238  -4192534.920   -744112.372
10 0 59402  12942.000000  0   -5554159.076  -4072562.274    159712.468
10 0 59402  13062.000000  0   -5591465.246  -3879882.551   1060724.196
10 0 59402  13182.000000  0   -5527045.184  -3619602.014   1943055.744
10 0 59402  13302.000000  0   -5360880.824  -3298040.962   2791164.623
10 0 59402  13422.000000  0   -5094870.686  -2922586.982   3590114.565
10 0 59402  13542.000000  0   -4732810.323  -2501528.409   4325845.240
10 0 59402  13662.000000  0   -4280333.628  -2043871.063   4985423.513
10 0 59402  13782.000000  0   -3744818.337  -1559144.851   5557269.658
10 0 59402  13902.000000  0   -3135259.666  -1057205.176   6031358.059
10 0 59402  14022.000000  0   -2462112.579   -548031.456   6399390.083
10 0 59402  14142.000000  0   -1737105.341    -41527.257   6654933.536
10 0 59402  14262.000000  0    -973030.626    452671.386   6793527.379
10 0 59402  14382.000000  0    -183518.705    925377.501   6812754.574
10 0 59402  14502.000000  0     617205.426   1368023.191   6712281.532
10 0 59402  14622.000000  0    1414577.574   1772814.933   6493863.705
10 0 59402  14742.000000  0    2193958.484   2132870.949   6161316.135
10 0 59402  14862.000000  0    2940901.929   2442338.470   5720451.349
10 0 59402  14982.000000  0    3641424.544   2696490.447   5178984.302
10 0 59402  15102.000000  0    4282271.139   2891799.398   4546402.754
10 0 59402  15222.000000  0    4851169.489   3025987.175   3833806.777
10 0 59402  15342.000000  0    5337074.398   3098049.846   3053718.897
10 0 59402  15462.000000  0    5730390.454   3108254.288   2219862.063
10 0 59402  15582.000000  0    6023167.540   3058109.555   1346916.933
10 0 59402  15702.000000  0    6209267.972   2950312.637    450257.848
10 0 59402  15822.000000  0    6284497.525   2788668.380   -454326.536
10 0 59402  15942.000000  0    6246696.727   2577985.375  -1350920.520
10 0 59402  16062.000000  0    6095790.879   2323952.310  -2223768.371
10 0 59402  16182.000000  0    5833800.258   2032999.233  -3057558.169
10 0 59402  16302.000000  0    5464807.219   1712143.805  -3837695.446
10 0 59402  16422.000000  0    4994883.033   1368828.194  -4550560.312
10 0 59402  16542.000000  0    4431975.275   1010750.870  -5183742.369
10 0 59402  16662.000000  0    3785762.198    645698.946  -5726249.140
10 0 59402  16782.000000  0    3067477.514    281383.447  -6168687.735
10 0 59402  16902.000000  0    2289707.963    -74718.740  -6503416.639
10 0 59402  17022.000000  0    1466170.125   -415513.535  -6724665.810
10 0 59402  17142.000000  0     611470.064   -734426.591  -6828627.130
10 0 59402  17262.000000  0    -259153.307  -1025526.172  -6813512.706
10 0 59402  17382.000000  0   -1130093.449  -1283629.805  -6679581.020
10 0 59402  17502.000000  0   -1985649.157  -1504394.261  -6429133.882
10 0 59402  17622.000000  0   -2810301.689  -1684387.460  -6066480.614
10 0 59402  17742.000000  0   -3588989.849  -1821141.003  -5597871.464
10 0 59402  17862.000000  0   -4307383.280  -1913183.928  -5031402.222
10 0 59402  17982.000000  0   -4952148.941  -1960055.767  -4376885.632
10 0 59402  18102.000000  0   -5511203.718  -1962298.557  -3645692.315
10 0 59402  18222.000000  0   -5973949.923  -1921428.120  -2850562.329
10 0 59402  18342.000000  0   -6331486.965  -1839884.248  -2005388.441
10 0 59402  18462.000000  0   -6576793.985  -1720960.600  -1124975.442
10 0 59402  18582.000000  0   -6704878.466  -1568715.950   -224778.824
10 0 59402  18702.000000  0   -6712886.502  -1387868.258    679371.903
10 0 59402  18822.000000  0   -6600170.601  -1183674.085   1571559.656
10 0 59402  18942.000000  0   -6368312.700   -961796.877   2436069.151
10 0 59402  19062.000000  0   -6021102.156   -728167.454   3257672.577
10 0 59402  19182.000000  0   -5564469.361   -488839.650   4021905.713
10 0 59402  19302.000000  0   -5006375.169   -249845.510   4715327.919
10 0 59402  19422.000000  0   -4356661.621    -17054.130   5325758.910
10 0 59402  19542.000000  0   -3626869.536    203963.699   5842490.941
10 0 59402  19662.000000  0   -2830024.270    408061.148   6256473.531
10 0 59402  19782.000000  0   -1980395.416    590628.325   6560466.182
10 0 59402  19902.000000  0   -1093235.999    747690.856   6749159.522
10 0 59402  20022.000000  0    -184505.639    875992.958   6819261.605
99
